{
  "type": "FeatureCollection",
  "features": [
    {
      "type": "Feature",
      "properties": {
        "norad_id": 30299,
        "name": "FENGYUN 1C DEB",
        "group": "fengyun-1c-debris",
        "lat": 78.74559222396324,
        "lon": 17.127869253969056,
        "alt_km": 882.5058703732639,
        "timestamp": "2025-12-24T09:46:31.279419+00:00",
        "meta_object_name": "FENGYUN 1C DEB",
        "meta_object_id": "1999-025ZL",
        "meta_epoch": "2025-12-23T11:18:11.262816",
        "meta_mean_motion": 14.07797987,
        "meta_eccentricity": 0.01031259,
        "meta_inclination": 99.093,
        "meta_ra_of_asc_node": 69.7764,
        "meta_arg_of_pericenter": 337.5048,
        "meta_mean_anomaly": 41.8846,
        "meta_ephemeris_type": 0,
        "meta_classification_type": "U",
        "meta_norad_cat_id": 30299,
        "meta_element_set_no": 999,
        "meta_rev_at_epoch": 96441,
        "meta_bstar": 0.0013100983,
        "meta_mean_motion_dot": 2.284e-05,
        "meta_mean_motion_ddot": 0,
        "tle_line1": "1 30299U 99025ZL  25357.47096369  .00002284  00000+0  13101-2 0  9997",
        "tle_line2": "2 30299  99.0930  69.7764 0103125 337.5048  41.8846 14.07797987964410"
      },
      "geometry": {
        "type": "Point",
        "coordinates": [
          17.127869253969056,
          78.74559222396324
        ]
      }
    },
    {
      "type": "Feature",
      "properties": {
        "norad_id": 30300,
        "name": "FENGYUN 1C DEB",
        "group": "fengyun-1c-debris",
        "lat": -22.096681931105234,
        "lon": 71.83799361187438,
        "alt_km": 794.870099355091,
        "timestamp": "2025-12-24T09:46:31.279430+00:00",
        "meta_object_name": "FENGYUN 1C DEB",
        "meta_object_id": "1999-025ZM",
        "meta_epoch": "2025-12-22T16:31:21.679104",
        "meta_mean_motion": 14.26932196,
        "meta_eccentricity": 0.00761124,
        "meta_inclination": 99.04,
        "meta_ra_of_asc_node": 66.3568,
        "meta_arg_of_pericenter": 265.3319,
        "meta_mean_anomaly": 246.7293,
        "meta_ephemeris_type": 0,
        "meta_classification_type": "U",
        "meta_norad_cat_id": 30300,
        "meta_element_set_no": 999,
        "meta_rev_at_epoch": 97126,
        "meta_bstar": 0.0021539123,
        "meta_mean_motion_dot": 5.352e-05,
        "meta_mean_motion_ddot": 0,
        "tle_line1": "1 30300U 99025ZM  25356.68844536  .00005352  00000+0  21539-2 0  9992",
        "tle_line2": "2 30300  99.0400  66.3568 0076112 265.3319 246.7293 14.26932196971261"
      },
      "geometry": {
        "type": "Point",
        "coordinates": [
          71.83799361187438,
          -22.096681931105234
        ]
      }
    },
    {
      "type": "Feature",
      "properties": {
        "norad_id": 30301,
        "name": "FENGYUN 1C DEB",
        "group": "fengyun-1c-debris",
        "lat": 22.326158213704005,
        "lon": -26.54442863295844,
        "alt_km": 719.9805170477566,
        "timestamp": "2025-12-24T09:46:31.279440+00:00",
        "meta_object_name": "FENGYUN 1C DEB",
        "meta_object_id": "1999-025ZN",
        "meta_epoch": "2025-12-23T03:33:44.233632",
        "meta_mean_motion": 14.53317152,
        "meta_eccentricity": 0.00692984,
        "meta_inclination": 98.6348,
        "meta_ra_of_asc_node": 148.5812,
        "meta_arg_of_pericenter": 258.1075,
        "meta_mean_anomaly": 157.3265,
        "meta_ephemeris_type": 0,
        "meta_classification_type": "U",
        "meta_norad_cat_id": 30301,
        "meta_element_set_no": 999,
        "meta_rev_at_epoch": 97368,
        "meta_bstar": 0.0046150817,
        "meta_mean_motion_dot": 0.00019792,
        "meta_mean_motion_ddot": 0,
        "tle_line1": "1 30301U 99025ZN  25357.14842863  .00019792  00000+0  46151-2 0  9996",
        "tle_line2": "2 30301  98.6348 148.5812 0069298 258.1075 157.3265 14.53317152973682"
      },
      "geometry": {
        "type": "Point",
        "coordinates": [
          -26.54442863295844,
          22.326158213704005
        ]
      }
    },
    {
      "type": "Feature",
      "properties": {
        "norad_id": 30302,
        "name": "FENGYUN 1C DEB",
        "group": "fengyun-1c-debris",
        "lat": 11.448663866449039,
        "lon": -96.15852198117541,
        "alt_km": 827.0434518835928,
        "timestamp": "2025-12-24T09:46:31.279450+00:00",
        "meta_object_name": "FENGYUN 1C DEB",
        "meta_object_id": "1999-025ZP",
        "meta_epoch": "2025-12-22T16:55:49.257408",
        "meta_mean_motion": 14.12877034,
        "meta_eccentricity": 0.01057335,
        "meta_inclination": 98.5539,
        "meta_ra_of_asc_node": 263.962,
        "meta_arg_of_pericenter": 89.0199,
        "meta_mean_anomaly": 272.3086,
        "meta_ephemeris_type": 0,
        "meta_classification_type": "U",
        "meta_norad_cat_id": 30302,
        "meta_element_set_no": 999,
        "meta_rev_at_epoch": 96184,
        "meta_bstar": 0.0018824994,
        "meta_mean_motion_dot": 3.654e-05,
        "meta_mean_motion_ddot": 0,
        "tle_line1": "1 30302U 99025ZP  25356.70543122  .00003654  00000+0  18825-2 0  9991",
        "tle_line2": "2 30302  98.5539 263.9620 0105733  89.0199 272.3086 14.12877034961845"
      },
      "geometry": {
        "type": "Point",
        "coordinates": [
          -96.15852198117541,
          11.448663866449039
        ]
      }
    },
    {
      "type": "Feature",
      "properties": {
        "norad_id": 30303,
        "name": "FENGYUN 1C DEB",
        "group": "fengyun-1c-debris",
        "lat": 35.54205109999394,
        "lon": -97.43771254825478,
        "alt_km": 816.859099075632,
        "timestamp": "2025-12-24T09:46:31.279460+00:00",
        "meta_object_name": "FENGYUN 1C DEB",
        "meta_object_id": "1999-025ZQ",
        "meta_epoch": "2025-12-23T16:15:16.846848",
        "meta_mean_motion": 14.25944495,
        "meta_eccentricity": 0.00774322,
        "meta_inclination": 99.0184,
        "meta_ra_of_asc_node": 75.2966,
        "meta_arg_of_pericenter": 251.0037,
        "meta_mean_anomaly": 108.274,
        "meta_ephemeris_type": 0,
        "meta_classification_type": "U",
        "meta_norad_cat_id": 30303,
        "meta_element_set_no": 999,
        "meta_rev_at_epoch": 97191,
        "meta_bstar": 0.0024536428,
        "meta_mean_motion_dot": 5.993e-05,
        "meta_mean_motion_ddot": 0,
        "tle_line1": "1 30303U 99025ZQ  25357.67727832  .00005993  00000+0  24536-2 0  9995",
        "tle_line2": "2 30303  99.0184  75.2966 0077432 251.0037 108.2740 14.25944495971914"
      },
      "geometry": {
        "type": "Point",
        "coordinates": [
          -97.43771254825478,
          35.54205109999394
        ]
      }
    },
    {
      "type": "Feature",
      "properties": {
        "norad_id": 30304,
        "name": "FENGYUN 1C DEB",
        "group": "fengyun-1c-debris",
        "lat": -46.34502780772647,
        "lon": -118.60593307245469,
        "alt_km": 892.0089604459017,
        "timestamp": "2025-12-24T09:46:31.279471+00:00",
        "meta_object_name": "FENGYUN 1C DEB",
        "meta_object_id": "1999-025ZR",
        "meta_epoch": "2025-12-23T15:44:28.497696",
        "meta_mean_motion": 14.15546458,
        "meta_eccentricity": 0.00731313,
        "meta_inclination": 99.0323,
        "meta_ra_of_asc_node": 70.2297,
        "meta_arg_of_pericenter": 17.518,
        "meta_mean_anomaly": 342.8491,
        "meta_ephemeris_type": 0,
        "meta_classification_type": "U",
        "meta_norad_cat_id": 30304,
        "meta_element_set_no": 999,
        "meta_rev_at_epoch": 96973,
        "meta_bstar": 0.0012465796,
        "meta_mean_motion_dot": 2.456e-05,
        "meta_mean_motion_ddot": 0,
        "tle_line1": "1 30304U 99025ZR  25357.65588539  .00002456  00000+0  12466-2 0  9993",
        "tle_line2": "2 30304  99.0323  70.2297 0073131  17.5180 342.8491 14.15546458969730"
      },
      "geometry": {
        "type": "Point",
        "coordinates": [
          -118.60593307245469,
          -46.34502780772647
        ]
      }
    },
    {
      "type": "Feature",
      "properties": {
        "norad_id": 30305,
        "name": "FENGYUN 1C DEB",
        "group": "fengyun-1c-debris",
        "lat": 20.656228851430516,
        "lon": 120.25997204921917,
        "alt_km": 1023.8028815009766,
        "timestamp": "2025-12-24T09:46:31.279481+00:00",
        "meta_object_name": "FENGYUN 1C DEB",
        "meta_object_id": "1999-025ZS",
        "meta_epoch": "2025-12-24T02:32:09.875040",
        "meta_mean_motion": 13.60236742,
        "meta_eccentricity": 0.0265855,
        "meta_inclination": 98.5889,
        "meta_ra_of_asc_node": 296.7286,
        "meta_arg_of_pericenter": 71.4201,
        "meta_mean_anomaly": 48.2516,
        "meta_ephemeris_type": 0,
        "meta_classification_type": "U",
        "meta_norad_cat_id": 30305,
        "meta_element_set_no": 999,
        "meta_rev_at_epoch": 93928,
        "meta_bstar": 0.00034351,
        "meta_mean_motion_dot": 2.9e-06,
        "meta_mean_motion_ddot": 0,
        "tle_line1": "1 30305U 99025ZS  25358.10566985  .00000290  00000+0  34351-3 0  9998",
        "tle_line2": "2 30305  98.5889 296.7286 0265855  71.4201  48.2516 13.60236742939287"
      },
      "geometry": {
        "type": "Point",
        "coordinates": [
          120.25997204921917,
          20.656228851430516
        ]
      }
    }
  ]
}